{"type": "FeatureCollection", "features": [ {"type": "Feature", "properties": {"norad_id": 39122, "name": "EUTELSAT 117 WEST A", "group": "eutelsat", "lat": 0.011361787776973718, "lon": 119.65739217553737, "alt_km": 35795.167803032295, "timestamp": "2025-12-04T10:51:49.777483+00:00", "meta": {"OBJECT_NAME": "EUTELSAT 117 WEST A", "OBJECT_ID": "2013-012A", "EPOCH": "2025-12-03T13:12:01.410912", "MEAN_MOTION": 1.00274082, "ECCENTRICITY": 0.000313, "INCLINATION": 0.0219, "RA_OF_ASC_NODE": 309.0576, "ARG_OF_PERICENTER": 308.0707, "MEAN_ANOMALY": 256.726, "EPHEMERIS_TYPE": 0, "CLASSIFICATION_TYPE": "U", "NORAD_CAT_ID": 39122, "ELEMENT_SET_NO": 999, "REV_AT_EPOCH": 4647, "BSTAR": 0, "MEAN_MOTION_DOT": 5e-08, "MEAN_MOTION_DDOT": 0}, "tle": {"line1": "1 39122U 13012A   25337.55001633  .00000005  00000+0  00000+0 0  9990", "line2": "2 39122   0.0219 309.0576 0003130 308.0707 256.7260  1.00274082 46476"}}, "geometry": {"type": "Point", "coordinates": [119.65739217553737, 0.011361787776973718]}}, {"type": "Feature", "properties": {"norad_id": 39163, "name": "EUTELSAT 7B", "group": "eutelsat", "lat": -0.08419481457011, "lon": -116.58894798340656, "alt_km": 35779.83383314356, "timestamp": "2025-12-04T10:51:49.777496+00:00", "meta": {"OBJECT_NAME": "EUTELSAT 7B", "OBJECT_ID": "2013-022A", "EPOCH": "2025-12-03T17:12:48.873312", "MEAN_MOTION": 1.00269536, "ECCENTRICITY": 0.00042199, "INCLINATION": 0.0678, "RA_OF_ASC_NODE": 0.663, "ARG_OF_PERICENTER": 310.3325, "MEAN_ANOMALY": 27.0084, "EPHEMERIS_TYPE": 0, "CLASSIFICATION_TYPE": "U", "NORAD_CAT_ID": 39163, "ELEMENT_SET_NO": 999, "REV_AT_EPOCH": 4599, "BSTAR": 0, "MEAN_MOTION_DOT": 6.5e-07, "MEAN_MOTION_DDOT": 0}, "tle": {"line1": "1 39163U 13022A   25337.71723233  .00000065  00000+0  00000+0 0  9997", "line2": "2 39163   0.0678   0.6630 0004219 310.3325  27.0084  1.00269536 45993"}}, "geometry": {"type": "Point", "coordinates": [-116.58894798340656, -0.08419481457011]}}, {"type": "Feature", "properties": {"norad_id": 39612, "name": "EXPRESS-AT1", "group": "eutelsat", "lat": -0.012369274999771016, "lon": -67.53606643025995, "alt_km": 35787.220753374204, "timestamp": "2025-12-04T10:51:49.777509+00:00", "meta": {"OBJECT_NAME": "EXPRESS-AT1", "OBJECT_ID": "2014-010A", "EPOCH": "2025-12-03T21:56:38.683968", "MEAN_MOTION": 1.00270078, "ECCENTRICITY": 2.569e-05, "INCLINATION": 0.017, "RA_OF_ASC_NODE": 302.0572, "ARG_OF_PERICENTER": 219.2348, "MEAN_ANOMALY": 296.8676, "EPHEMERIS_TYPE": 0, "CLASSIFICATION_TYPE": "U", "NORAD_CAT_ID": 39612, "ELEMENT_SET_NO": 999, "REV_AT_EPOCH": 4286, "BSTAR": 0, "MEAN_MOTION_DOT": 9.6e-07, "MEAN_MOTION_DDOT": 0}, "tle": {"line1": "1 39612U 14010A   25337.91433662  .00000096  00000+0  00000+0 0  9994", "line2": "2 39612   0.0170 302.0572 0000256 219.2348 296.8676  1.00270078 42861"}}, "geometry": {"type": "Point", "coordinates": [-67.53606643025995, -0.012369274999771016]}}, {"type": "Feature", "properties": {"norad_id": 39613, "name": "EXPRESS-AT2", "group": "eutelsat", "lat": 0.032927090640794715, "lon": 16.324606371653864, "alt_km": 35785.667280193135, "timestamp": "2025-12-04T10:51:49.777521+00:00", "meta": {"OBJECT_NAME": "EXPRESS-AT2", "OBJECT_ID": "2014-010B", "EPOCH": "2025-12-04T07:32:36.708000", "MEAN_MOTION": 1.00270269, "ECCENTRICITY": 0.0001512, "INCLINATION": 0.0214, "RA_OF_ASC_NODE": 337.5162, "ARG_OF_PERICENTER": 316.7864, "MEAN_ANOMALY": 32.0865, "EPHEMERIS_TYPE": 0, "CLASSIFICATION_TYPE": "U", "NORAD_CAT_ID": 39613, "ELEMENT_SET_NO": 999, "REV_AT_EPOCH": 4254, "BSTAR": 0, "MEAN_MOTION_DOT": 0, "MEAN_MOTION_DDOT": 0}, "tle": {"line1": "1 39613U 14010B   25338.31431375  .00000000  00000+0  00000+0 0  9994", "line2": "2 39613   0.0214 337.5162 0001512 316.7864  32.0865  1.00270269 42548"}}, "geometry": {"type": "Point", "coordinates": [16.324606371653864, 0.032927090640794715]}}, {"type": "Feature", "properties": {"norad_id": 39773, "name": "EUTELSAT 3B", "group": "eutelsat", "lat": -0.0766889204910137, "lon": -120.43342215519849, "alt_km": 35766.43749452321, "timestamp": "2025-12-04T10:51:49.777533+00:00", "meta": {"OBJECT_NAME": "EUTELSAT 3B", "OBJECT_ID": "2014-030A", "EPOCH": "2025-12-03T18:42:38.603808", "MEAN_MOTION": 1.00270877, "ECCENTRICITY": 0.00047809, "INCLINATION": 0.0635, "RA_OF_ASC_NODE": 3.048, "ARG_OF_PERICENTER": 225.3781, "MEAN_ANOMALY": 128.1935, "EPHEMERIS_TYPE": 0, "CLASSIFICATION_TYPE": "U", "NORAD_CAT_ID": 39773, "ELEMENT_SET_NO": 999, "REV_AT_EPOCH": 4210, "BSTAR": 0, "MEAN_MOTION_DOT": 3.7e-07, "MEAN_MOTION_DDOT": 0}, "tle": {"line1": "1 39773U 14030A   25337.77961347  .00000037  00000+0  00000+0 0  9999", "line2": "2 39773   0.0635   3.0480 0004780 225.3781 128.1935  1.00270877 42105"}}, "geometry": {"type": "Point", "coordinates": [-120.43342215519849, -0.0766889204910137]}}, {"type": "Feature", "properties": {"norad_id": 40425, "name": "EUTELSAT 115 WEST B", "group": "eutelsat", "lat": -0.00438998518233044, "lon": 121.57348803539972, "alt_km": 35784.712835215, "timestamp": "2025-12-04T10:51:49.777545+00:00", "meta": {"OBJECT_NAME": "EUTELSAT 115 WEST B", "OBJECT_ID": "2015-010B", "EPOCH": "2025-12-03T16:37:59.708352", "MEAN_MOTION": 1.00270514, "ECCENTRICITY": 4.787e-05, "INCLINATION": 0.0142, "RA_OF_ASC_NODE": 147.7315, "ARG_OF_PERICENTER": 301.2332, "MEAN_ANOMALY": 118.4232, "EPHEMERIS_TYPE": 0, "CLASSIFICATION_TYPE": "U", "NORAD_CAT_ID": 40425, "ELEMENT_SET_NO": 999, "REV_AT_EPOCH": 3943, "BSTAR": 0, "MEAN_MOTION_DOT": -7e-08, "MEAN_MOTION_DDOT": 0}, "tle": {"line1": "1 40425U 15010B   25337.69305218 -.00000007  00000+0  00000+0 0  9992", "line2": "2 40425   0.0142 147.7315 0000478 301.2332 118.4232  1.00270514 39435"}}, "geometry": {"type": "Point", "coordinates": [121.57348803539972, -0.00438998518233044]}}, {"type": "Feature", "properties": {"norad_id": 40875, "name": "EUTELSAT 8 WEST B", "group": "eutelsat", "lat": -0.0818289328895807, "lon": -131.55133787118427, "alt_km": 35770.4521151738, "timestamp": "2025-12-04T10:51:49.777557+00:00", "meta": {"OBJECT_NAME": "EUTELSAT 8 WEST B", "OBJECT_ID": "2015-039B", "EPOCH": "2025-12-03T18:42:38.603808", "MEAN_MOTION": 1.00271603, "ECCENTRICITY": 0.00041368, "INCLINATION": 0.0656, "RA_OF_ASC_NODE": 348.0497, "ARG_OF_PERICENTER": 266.9751, "MEAN_ANOMALY": 90.5072, "EPHEMERIS_TYPE": 0, "CLASSIFICATION_TYPE": "U", "NORAD_CAT_ID": 40875, "ELEMENT_SET_NO": 999, "REV_AT_EPOCH": 3769, "BSTAR": 0, "MEAN_MOTION_DOT": -4.8e-07, "MEAN_MOTION_DDOT": 0}, "tle": {"line1": "1 40875U 15039B   25337.77961347 -.00000048  00000+0  00000+0 0  9997", "line2": "2 40875   0.0656 348.0497 0004136 266.9751  90.5072  1.00271603 37696"}}, "geometry": {"type": "Point", "coordinates": [-131.55133787118427, -0.0818289328895807]}}, {"type": "Feature", "properties": {"norad_id": 41310, "name": "EUTELSAT 9B", "group": "eutelsat", "lat": -0.017488926857450425, "lon": -114.57027924748056, "alt_km": 35766.39015067708, "timestamp": "2025-12-04T10:51:49.777569+00:00", "meta": {"OBJECT_NAME": "EUTELSAT 9B", "OBJECT_ID": "2016-005A", "EPOCH": "2025-12-04T00:04:18.830208", "MEAN_MOTION": 1.00271471, "ECCENTRICITY": 0.0004951, "INCLINATION": 0.0674, "RA_OF_ASC_NODE": 75.3023, "ARG_OF_PERICENTER": 189.9552, "MEAN_ANOMALY": 177.891, "EPHEMERIS_TYPE": 0, "CLASSIFICATION_TYPE": "U", "NORAD_CAT_ID": 41310, "ELEMENT_SET_NO": 999, "REV_AT_EPOCH": 3616, "BSTAR": 0, "MEAN_MOTION_DOT": 7.8e-07, "MEAN_MOTION_DDOT": 0}, "tle": {"line1": "1 41310U 16005A   25338.00299572  .00000078  00000+0  00000+0 0  9999", "line2": "2 41310   0.0674  75.3023 0004951 189.9552 177.8910  1.00271471 36168"}}, "geometry": {"type": "Point", "coordinates": [-114.57027924748056, -0.017488926857450425]}}, {"type": "Feature", "properties": {"norad_id": 41382, "name": "EUTELSAT 65 WEST A", "group": "eutelsat", "lat": -0.01381283354179872, "lon": 171.22692061185205, "alt_km": 35786.32187239849, "timestamp": "2025-12-04T10:51:49.777581+00:00", "meta": {"OBJECT_NAME": "EUTELSAT 65 WEST A", "OBJECT_ID": "2016-014A", "EPOCH": "2025-12-04T01:25:48.524160", "MEAN_MOTION": 1.00270418, "ECCENTRICITY": 0.0002819, "INCLINATION": 0.0499, "RA_OF_ASC_NODE": 346.9659, "ARG_OF_PERICENTER": 273.4598, "MEAN_ANOMALY": 128.9647, "EPHEMERIS_TYPE": 0, "CLASSIFICATION_TYPE": "U", "NORAD_CAT_ID": 41382, "ELEMENT_SET_NO": 999, "REV_AT_EPOCH": 3557, "BSTAR": 0, "MEAN_MOTION_DOT": -2.6e-06, "MEAN_MOTION_DDOT": 0}, "tle": {"line1": "1 41382U 16014A   25338.05958940 -.00000260  00000+0  00000+0 0  9998", "line2": "2 41382   0.0499 346.9659 0002819 273.4598 128.9647  1.00270418 35572"}}, "geometry": {"type": "Point", "coordinates": [171.22692061185205, -0.01381283354179872]}}, {"type": "Feature", "properties": {"norad_id": 41589, "name": "EUTELSAT 117 WEST B", "group": "eutelsat", "lat": -0.006906151415573589, "lon": 119.46228747211299, "alt_km": 35786.087176432025, "timestamp": "2025-12-04T10:51:49.777593+00:00", "meta": {"OBJECT_NAME": "EUTELSAT 117 WEST B", "OBJECT_ID": "2016-038B", "EPOCH": "2025-12-04T02:38:16.325088", "MEAN_MOTION": 1.0026993, "ECCENTRICITY": 1.62e-05, "INCLINATION": 0.0084, "RA_OF_ASC_NODE": 141.8858, "ARG_OF_PERICENTER": 294.8653, "MEAN_ANOMALY": 279.0065, "EPHEMERIS_TYPE": 0, "CLASSIFICATION_TYPE": "U", "NORAD_CAT_ID": 41589, "ELEMENT_SET_NO": 999, "REV_AT_EPOCH": 3470, "BSTAR": 0, "MEAN_MOTION_DOT": 5e-08, "MEAN_MOTION_DDOT": 0}, "tle": {"line1": "1 41589U 16038B   25338.10991117  .00000005  00000+0  00000+0 0  9998", "line2": "2 41589   0.0084 141.8858 0000162 294.8653 279.0065  1.00269930 34705"}}, "geometry": {"type": "Point", "coordinates": [119.46228747211299, -0.006906151415573589]}}]}